[{"OBJECT_NAME":"IABS R/B","OBJECT_ID":"2003-040C","EPOCH":"2026-03-14T04:38:05.215488","MEAN_MOTION":1.00736891,"ECCENTRICITY":0.00125836,"INCLINATION":13.316,"RA_OF_ASC_NODE":13.1609,"ARG_OF_PERICENTER":314.7213,"MEAN_ANOMALY":45.1913,"EPHEMERIS_TYPE":0,"CLASSIFICATION_TYPE":"U","NORAD_CAT_ID":27877,"ELEMENT_SET_NO":999,"REV_AT_EPOCH":2499,"BSTAR":0,"MEAN_MOTION_DOT":-2.68e-6,"MEAN_MOTION_DDOT":0},{"OBJECT_NAME":"GALAXY 13 (HORIZONS-1)","OBJECT_ID":"2003-044A","EPOCH":"2026-03-14T16:21:11.487744","MEAN_MOTION":1.00271685,"ECCENTRICITY":0.00022105,"INCLINATION":1.1742,"RA_OF_ASC_NODE":85.1177,"ARG_OF_PERICENTER":267.4645,"MEAN_ANOMALY":274.9766,"EPHEMERIS_TYPE":0,"CLASSIFICATION_TYPE":"U","NORAD_CAT_ID":27954,"ELEMENT_SET_NO":999,"REV_AT_EPOCH":4562,"BSTAR":0,"MEAN_MOTION_DOT":1.32e-6,"MEAN_MOTION_DDOT":0},{"OBJECT_NAME":"YAMAL 202","OBJECT_ID":"2003-053A","EPOCH":"2026-03-14T19:33:19.535616","MEAN_MOTION":1.00272904,"ECCENTRICITY":0.00052887,"INCLINATION":6.1052,"RA_OF_ASC_NODE":72.0843,"ARG_OF_PERICENTER":250.6872,"MEAN_ANOMALY":306.5002,"EPHEMERIS_TYPE":0,"CLASSIFICATION_TYPE":"U","NORAD_CAT_ID":28089,"ELEMENT_SET_NO":999,"REV_AT_EPOCH":8175,"BSTAR":0,"MEAN_MOTION_DOT":-7.8e-7,"MEAN_MOTION_DDOT":0},{"OBJECT_NAME":"YAMAL 201","OBJECT_ID":"2003-053B","EPOCH":"2026-03-14T12:14:43.168704","MEAN_MOTION":1.00306186,"ECCENTRICITY":0.00014598,"INCLINATION":9.3971,"RA_OF_ASC_NODE":56.5047,"ARG_OF_PERICENTER":226.8205,"MEAN_ANOMALY":138.5486,"EPHEMERIS_TYPE":0,"CLASSIFICATION_TYPE":"U","NORAD_CAT_ID":28094,"ELEMENT_SET_NO":999,"REV_AT_EPOCH":8393,"BSTAR":0,"MEAN_MOTION_DOT":-1.2e-7,"MEAN_MOTION_DDOT":0},{"OBJECT_NAME":"UFO 11 (USA 174)","OBJECT_ID":"2003-057A","EPOCH":"2026-03-14T22:33:32.253696","MEAN_MOTION":1.00272301,"ECCENTRICITY":0.00034158,"INCLINATION":8.8629,"RA_OF_ASC_NODE":34.2782,"ARG_OF_PERICENTER":301.1541,"MEAN_ANOMALY":250.9175,"EPHEMERIS_TYPE":0,"CLASSIFICATION_TYPE":"U","NORAD_CAT_ID":28117,"ELEMENT_SET_NO":999,"REV_AT_EPOCH":8150,"BSTAR":0,"MEAN_MOTION_DOT":-9.8e-7,"MEAN_MOTION_DDOT":0},{"OBJECT_NAME":"SL-12 R/B(2)","OBJECT_ID":"2003-060D","EPOCH":"2026-03-14T21:38:45.684960","MEAN_MOTION":1.00258496,"ECCENTRICITY":0.00186236,"INCLINATION":13.4828,"RA_OF_ASC_NODE":14.4376,"ARG_OF_PERICENTER":235.9242,"MEAN_ANOMALY":298.317,"EPHEMERIS_TYPE":0,"CLASSIFICATION_TYPE":"U","NORAD_CAT_ID":28139,"ELEMENT_SET_NO":999,"REV_AT_EPOCH":8108,"BSTAR":0,"MEAN_MOTION_DOT":8.9e-7,"MEAN_MOTION_DDOT":0},{"OBJECT_NAME":"USA 176 (DSP 22)","OBJECT_ID":"2004-004A","EPOCH":"2026-03-14T21:44:29.457600","MEAN_MOTION":1.00271695,"ECCENTRICITY":0.00021354,"INCLINATION":11.9343,"RA_OF_ASC_NODE":26.7541,"ARG_OF_PERICENTER":276.0471,"MEAN_ANOMALY":99.398,"EPHEMERIS_TYPE":0,"CLASSIFICATION_TYPE":"U","NORAD_CAT_ID":28158,"ELEMENT_SET_NO":999,"REV_AT_EPOCH":3199,"BSTAR":0,"MEAN_MOTION_DOT":-1.54e-6,"MEAN_MOTION_DDOT":0},{"OBJECT_NAME":"IUS R/B(2)","OBJECT_ID":"2004-004D","EPOCH":"2026-03-14T04:08:04.017408","MEAN_MOTION":0.99830002,"ECCENTRICITY":0.00044114,"INCLINATION":12.0469,"RA_OF_ASC_NODE":26.9651,"ARG_OF_PERICENTER":11.3264,"MEAN_ANOMALY":348.7122,"EPHEMERIS_TYPE":0,"CLASSIFICATION_TYPE":"U","NORAD_CAT_ID":28161,"ELEMENT_SET_NO":999,"REV_AT_EPOCH":2444,"BSTAR":0,"MEAN_MOTION_DOT":-2.59e-6,"MEAN_MOTION_DDOT":0},{"OBJECT_NAME":"ABS-4 (MOBISAT-1)","OBJECT_ID":"2004-007A","EPOCH":"2026-03-14T15:38:45.556224","MEAN_MOTION":1.00274622,"ECCENTRICITY":0.0005453,"INCLINATION":5.8029,"RA_OF_ASC_NODE":73.1511,"ARG_OF_PERICENTER":284.742,"MEAN_ANOMALY":110.0635,"EPHEMERIS_TYPE":0,"CLASSIFICATION_TYPE":"U","NORAD_CAT_ID":28184,"ELEMENT_SET_NO":999,"REV_AT_EPOCH":5139,"BSTAR":0,"MEAN_MOTION_DOT":4.1e-7,"MEAN_MOTION_DDOT":0},{"OBJECT_NAME":"EUTELSAT 139 WEST A","OBJECT_ID":"2004-008A","EPOCH":"2026-03-14T20:24:44.604864","MEAN_MOTION":1.00831436,"ECCENTRICITY":0.00023097,"INCLINATION":5.5878,"RA_OF_ASC_NODE":73.1311,"ARG_OF_PERICENTER":27.124,"MEAN_ANOMALY":2.0925,"EPHEMERIS_TYPE":0,"CLASSIFICATION_TYPE":"U","NORAD_CAT_ID":28187,"ELEMENT_SET_NO":999,"REV_AT_EPOCH":8041,"BSTAR":0,"MEAN_MOTION_DOT":-2.9e-7,"MEAN_MOTION_DDOT":0},{"OBJECT_NAME":"RADUGA-1 7","OBJECT_ID":"2004-010A","EPOCH":"2026-03-13T22:30:14.009760","MEAN_MOTION":1.00174134,"ECCENTRICITY":0.00051679,"INCLINATION":13.5676,"RA_OF_ASC_NODE":21.519,"ARG_OF_PERICENTER":246.4705,"MEAN_ANOMALY":296.7419,"EPHEMERIS_TYPE":0,"CLASSIFICATION_TYPE":"U","NORAD_CAT_ID":28194,"ELEMENT_SET_NO":999,"REV_AT_EPOCH":8046,"BSTAR":0,"MEAN_MOTION_DOT":7.6e-7,"MEAN_MOTION_DDOT":0},{"OBJECT_NAME":"SL-12 R/B(2)","OBJECT_ID":"2004-015D","EPOCH":"2026-03-14T12:50:24.744768","MEAN_MOTION":1.00710139,"ECCENTRICITY":0.00177475,"INCLINATION":13.2397,"RA_OF_ASC_NODE":15.0753,"ARG_OF_PERICENTER":326.1662,"MEAN_ANOMALY":214.4026,"EPHEMERIS_TYPE":0,"CLASSIFICATION_TYPE":"U","NORAD_CAT_ID":28240,"ELEMENT_SET_NO":999,"REV_AT_EPOCH":8045,"BSTAR":0,"MEAN_MOTION_DOT":1.09e-6,"MEAN_MOTION_DDOT":0},{"OBJECT_NAME":"AMC-11","OBJECT_ID":"2004-017A","EPOCH":"2026-03-14T21:40:22.352736","MEAN_MOTION":1.00272103,"ECCENTRICITY":0.00032434,"INCLINATION":0.0665,"RA_OF_ASC_NODE":79.6091,"ARG_OF_PERICENTER":287.1675,"MEAN_ANOMALY":19.724,"EPHEMERIS_TYPE":0,"CLASSIFICATION_TYPE":"U","NORAD_CAT_ID":28252,"ELEMENT_SET_NO":999,"REV_AT_EPOCH":7991,"BSTAR":0,"MEAN_MOTION_DOT":-5.0e-7,"MEAN_MOTION_DDOT":0},{"OBJECT_NAME":"SL-12 R/B(2)","OBJECT_ID":"2004-010F","EPOCH":"2026-03-14T09:53:07.222560","MEAN_MOTION":1.00104653,"ECCENTRICITY":0.00268355,"INCLINATION":13.6109,"RA_OF_ASC_NODE":21.7213,"ARG_OF_PERICENTER":6.8582,"MEAN_ANOMALY":220.4972,"EPHEMERIS_TYPE":0,"CLASSIFICATION_TYPE":"U","NORAD_CAT_ID":28256,"ELEMENT_SET_NO":999,"REV_AT_EPOCH":7971,"BSTAR":0,"MEAN_MOTION_DOT":-2.58e-6,"MEAN_MOTION_DDOT":0},{"OBJECT_NAME":"INTELSAT 10-02","OBJECT_ID":"2004-022A","EPOCH":"2026-03-14T22:11:49.337376","MEAN_MOTION":1.00270789,"ECCENTRICITY":0.00013091,"INCLINATION":0.0224,"RA_OF_ASC_NODE":119.2014,"ARG_OF_PERICENTER":292.1451,"MEAN_ANOMALY":93.1527,"EPHEMERIS_TYPE":0,"CLASSIFICATION_TYPE":"U","NORAD_CAT_ID":28358,"ELEMENT_SET_NO":999,"REV_AT_EPOCH":7961,"BSTAR":0,"MEAN_MOTION_DOT":-1.2e-7,"MEAN_MOTION_DDOT":0},{"OBJECT_NAME":"ANIK F2","OBJECT_ID":"2004-027A","EPOCH":"2026-03-14T21:40:22.352736","MEAN_MOTION":1.00272141,"ECCENTRICITY":0.00033923,"INCLINATION":3.0402,"RA_OF_ASC_NODE":80.6966,"ARG_OF_PERICENTER":306.4253,"MEAN_ANOMALY":359.3727,"EPHEMERIS_TYPE":0,"CLASSIFICATION_TYPE":"U","NORAD_CAT_ID":28378,"ELEMENT_SET_NO":999,"REV_AT_EPOCH":4031,"BSTAR":0,"MEAN_MOTION_DOT":-4.9e-7,"MEAN_MOTION_DDOT":0},{"OBJECT_NAME":"AMC-15","OBJECT_ID":"2004-041A","EPOCH":"2026-03-14T14:51:20.103552","MEAN_MOTION":1.00272647,"ECCENTRICITY":0.0002318,"INCLINATION":0.0392,"RA_OF_ASC_NODE":310.7237,"ARG_OF_PERICENTER":40.4045,"MEAN_ANOMALY":298.889,"EPHEMERIS_TYPE":0,"CLASSIFICATION_TYPE":"U","NORAD_CAT_ID":28446,"ELEMENT_SET_NO":999,"REV_AT_EPOCH":7835,"BSTAR":0,"MEAN_MOTION_DOT":-9.0e-7,"MEAN_MOTION_DDOT":0}]
