IABS R/B                
1 27877U 03040C   26073.19311592 -.00000268  00000+0  00000+0 0  9992
2 27877  13.3160  13.1609 0012583 314.7213  45.1913  1.00736891 24999
GALAXY 13 (HORIZONS-1)  
1 27954U 03044A   26073.68138296  .00000132  00000+0  00000+0 0  9993
2 27954   1.1742  85.1177 0002210 267.4645 274.9766  1.00271685 45620
YAMAL 202               
1 28089U 03053A   26073.81480944 -.00000078  00000+0  00000+0 0  9998
2 28089   6.1052  72.0843 0005288 250.6872 306.5002  1.00272904 81752
YAMAL 201               
1 28094U 03053B   26073.51022186 -.00000012  00000+0  00000+0 0  9999
2 28094   9.3971  56.5047 0001459 226.8205 138.5486  1.00306186 83938
UFO 11 (USA 174)        
1 28117U 03057A   26073.93995664 -.00000098  00000+0  00000+0 0  9999
2 28117   8.8629  34.2782 0003415 301.1541 250.9175  1.00272301 81507
SL-12 R/B(2)            
1 28139U 03060D   26073.90191765  .00000089  00000+0  00000+0 0  9993
2 28139  13.4828  14.4376 0018623 235.9242 298.3170  1.00258496 81085
USA 176 (DSP 22)        
1 28158U 04004A   26073.90589650 -.00000154  00000+0  00000+0 0  9991
2 28158  11.9343  26.7541 0002135 276.0471  99.3980  1.00271695 31991
IUS R/B(2)              
1 28161U 04004D   26073.17226872 -.00000259  00000+0  00000+0 0  9994
2 28161  12.0469  26.9651 0004411  11.3264 348.7122  0.99830002 24440
ABS-4 (MOBISAT-1)       
1 28184U 04007A   26073.65191616  .00000041  00000+0  00000+0 0  9990
2 28184   5.8029  73.1511 0005453 284.7420 110.0635  1.00274622 51399
EUTELSAT 139 WEST A     
1 28187U 04008A   26073.85051626 -.00000029  00000+0  00000+0 0  9999
2 28187   5.5878  73.1311 0002309  27.1240   2.0925  1.00831436 80414
RADUGA-1 7              
1 28194U 04010A   26072.93766215  .00000076  00000+0  00000+0 0  9996
2 28194  13.5676  21.5190 0005167 246.4705 296.7419  1.00174134 80466
SL-12 R/B(2)            
1 28240U 04015D   26073.53500862  .00000109  00000+0  00000+0 0  9991
2 28240  13.2397  15.0753 0017747 326.1662 214.4026  1.00710139 80454
AMC-11                  
1 28252U 04017A   26073.90303649 -.00000050  00000+0  00000+0 0  9997
2 28252   0.0665  79.6091 0003243 287.1675  19.7240  1.00272103 79913
SL-12 R/B(2)            
1 28256U 04010F   26073.41188915 -.00000258  00000+0  00000+0 0  9997
2 28256  13.6109  21.7213 0026835   6.8582 220.4972  1.00104653 79714
INTELSAT 10-02          
1 28358U 04022A   26073.92487659 -.00000012  00000+0  00000+0 0  9994
2 28358   0.0224 119.2014 0001309 292.1451  93.1527  1.00270789 79615
ANIK F2                 
1 28378U 04027A   26073.90303649 -.00000049  00000+0  00000+0 0  9995
2 28378   3.0402  80.6966 0003392 306.4253 359.3727  1.00272141 40316
AMC-15                  
1 28446U 04041A   26073.61898268 -.00000090  00000+0  00000+0 0  9997
2 28446   0.0392 310.7237 0002318  40.4045 298.8890  1.00272647 78350
